STARLINK-36362          
1 67424U 26005W   26030.16668981 -.01995094  00000+0 -25994-1 0  9990
2 67424  43.0008  99.6041 0000844 268.3121 250.5726 15.61313100  3997
STARLINK-36447          
1 67425U 26005X   26030.16668981 -.01996363  00000+0 -26009-1 0  9999
2 67425  43.0008  99.5984 0001015 273.6992 247.0977 15.61315657  3997
STARLINK-36146          
1 67426U 26005Y   26030.16668981 -.01994754  00000+0 -25988-1 0  9997
2 67426  43.0005  99.5942 0000847 268.5007 254.2156 15.61314186  3941
STARLINK-36459          
1 67427U 26005Z   26030.16668981 -.01989829  00000+0 -25916-1 0  9996
2 67427  43.0004  99.5888 0001012 275.2240 249.4078 15.61311298  3916
STARLINK-36464          
1 67428U 26005AA  26030.16668981 -.01997842  00000+0 -26031-1 0  9990
2 67428  43.0004  99.5793 0001027 274.0729 254.3937 15.61315575  3996
STARLINK-36513          
1 67429U 26005AB  26030.16668981 -.01995290  00000+0 -25993-1 0  9992
2 67429  43.0006  99.5738 0001034 274.0982 256.2844 15.61314674  3994
STARLINK-36515          
1 67430U 26005AC  26030.16668981 -.01994640  00000+0 -25987-1 0  9995
2 67430  43.0002  99.5841 0000897 265.3472 261.2059 15.61312913  3910
STARLINK-36443          
1 67431U 26005AD  26030.16668981 -.01994023  00000+0 -25976-1 0  9999
2 67431  43.0003  99.5686 0000994 270.5002 261.8011 15.61313951  3944
STARLINK-36460          
1 67432U 26005AE  26030.16668981 -.01997288  00000+0 -26023-1 0  9990
2 67432  43.0003  99.5643 0000921 271.8598 262.3575 15.61316248  3990
YAOGAN-50 01            
1 67433U 26006A   26030.14366311  .00000376  00000+0  17002-3 0  9991
2 67433 142.0313 268.6759 0000667 269.2959  90.7684 13.83252288  2315
CZ-6A R/B               
1 67434U 26006B   26029.42386602  .00001735  00000+0  20456-3 0  9993
2 67434 142.0436 274.6350 0202891 197.9215 161.4267 14.62283004  2323
HULIANWANG DIGUI-137    
1 67435U 26007A   26029.57294230  .00000078  00000+0  19317-3 0  9999
2 67435  50.0388 231.0696 0002874 290.3634  69.6954 13.85869606  2223
