CCSDS_OMM_VERS = 2.0
CREATION_DATE  = 
ORIGINATOR     = 

OBJECT_NAME    = STARLINK-36362
OBJECT_ID      = 2026-005W
CENTER_NAME    = EARTH
REF_FRAME      = TEME
TIME_SYSTEM    = UTC
MEAN_ELEMENT_THEORY = SGP/SGP4

EPOCH          = 2026-01-30T04:00:01.999584
MEAN_MOTION    = 15.61313100
ECCENTRICITY   = .0000844
INCLINATION    = 43.0008
RA_OF_ASC_NODE = 99.6041
ARG_OF_PERICENTER = 268.3121
MEAN_ANOMALY   = 250.5726

EPHEMERIS_TYPE = 0
CLASSIFICATION_TYPE = U
NORAD_CAT_ID   = 67424
ELEMENT_SET_NO = 999
REV_AT_EPOCH   = 399
BSTAR          = -.25994E-1
MEAN_MOTION_DOT = -.1995094E-1
MEAN_MOTION_DDOT = 0

CCSDS_OMM_VERS = 2.0
CREATION_DATE  = 
ORIGINATOR     = 

OBJECT_NAME    = STARLINK-36447
OBJECT_ID      = 2026-005X
CENTER_NAME    = EARTH
REF_FRAME      = TEME
TIME_SYSTEM    = UTC
MEAN_ELEMENT_THEORY = SGP/SGP4

EPOCH          = 2026-01-30T04:00:01.999584
MEAN_MOTION    = 15.61315657
ECCENTRICITY   = .0001015
INCLINATION    = 43.0008
RA_OF_ASC_NODE = 99.5984
ARG_OF_PERICENTER = 273.6992
MEAN_ANOMALY   = 247.0977

EPHEMERIS_TYPE = 0
CLASSIFICATION_TYPE = U
NORAD_CAT_ID   = 67425
ELEMENT_SET_NO = 999
REV_AT_EPOCH   = 399
BSTAR          = -.26009E-1
MEAN_MOTION_DOT = -.1996363E-1
MEAN_MOTION_DDOT = 0

CCSDS_OMM_VERS = 2.0
CREATION_DATE  = 
ORIGINATOR     = 

OBJECT_NAME    = STARLINK-36146
OBJECT_ID      = 2026-005Y
CENTER_NAME    = EARTH
REF_FRAME      = TEME
TIME_SYSTEM    = UTC
MEAN_ELEMENT_THEORY = SGP/SGP4

EPOCH          = 2026-01-30T04:00:01.999584
MEAN_MOTION    = 15.61314186
ECCENTRICITY   = .0000847
INCLINATION    = 43.0005
RA_OF_ASC_NODE = 99.5942
ARG_OF_PERICENTER = 268.5007
MEAN_ANOMALY   = 254.2156

EPHEMERIS_TYPE = 0
CLASSIFICATION_TYPE = U
NORAD_CAT_ID   = 67426
ELEMENT_SET_NO = 999
REV_AT_EPOCH   = 394
BSTAR          = -.25988E-1
MEAN_MOTION_DOT = -.1994754E-1
MEAN_MOTION_DDOT = 0

CCSDS_OMM_VERS = 2.0
CREATION_DATE  = 
ORIGINATOR     = 

OBJECT_NAME    = STARLINK-36459
OBJECT_ID      = 2026-005Z
CENTER_NAME    = EARTH
REF_FRAME      = TEME
TIME_SYSTEM    = UTC
MEAN_ELEMENT_THEORY = SGP/SGP4

EPOCH          = 2026-01-30T04:00:01.999584
MEAN_MOTION    = 15.61311298
ECCENTRICITY   = .0001012
INCLINATION    = 43.0004
RA_OF_ASC_NODE = 99.5888
ARG_OF_PERICENTER = 275.2240
MEAN_ANOMALY   = 249.4078

EPHEMERIS_TYPE = 0
CLASSIFICATION_TYPE = U
NORAD_CAT_ID   = 67427
ELEMENT_SET_NO = 999
REV_AT_EPOCH   = 391
BSTAR          = -.25916E-1
MEAN_MOTION_DOT = -.1989829E-1
MEAN_MOTION_DDOT = 0

CCSDS_OMM_VERS = 2.0
CREATION_DATE  = 
ORIGINATOR     = 

OBJECT_NAME    = STARLINK-36464
OBJECT_ID      = 2026-005AA
CENTER_NAME    = EARTH
REF_FRAME      = TEME
TIME_SYSTEM    = UTC
MEAN_ELEMENT_THEORY = SGP/SGP4

EPOCH          = 2026-01-30T04:00:01.999584
MEAN_MOTION    = 15.61315575
ECCENTRICITY   = .0001027
INCLINATION    = 43.0004
RA_OF_ASC_NODE = 99.5793
ARG_OF_PERICENTER = 274.0729
MEAN_ANOMALY   = 254.3937

EPHEMERIS_TYPE = 0
CLASSIFICATION_TYPE = U
NORAD_CAT_ID   = 67428
ELEMENT_SET_NO = 999
REV_AT_EPOCH   = 399
BSTAR          = -.26031E-1
MEAN_MOTION_DOT = -.1997842E-1
MEAN_MOTION_DDOT = 0

CCSDS_OMM_VERS = 2.0
CREATION_DATE  = 
ORIGINATOR     = 

OBJECT_NAME    = STARLINK-36513
OBJECT_ID      = 2026-005AB
CENTER_NAME    = EARTH
REF_FRAME      = TEME
TIME_SYSTEM    = UTC
MEAN_ELEMENT_THEORY = SGP/SGP4

EPOCH          = 2026-01-30T04:00:01.999584
MEAN_MOTION    = 15.61314674
ECCENTRICITY   = .0001034
INCLINATION    = 43.0006
RA_OF_ASC_NODE = 99.5738
ARG_OF_PERICENTER = 274.0982
MEAN_ANOMALY   = 256.2844

EPHEMERIS_TYPE = 0
CLASSIFICATION_TYPE = U
NORAD_CAT_ID   = 67429
ELEMENT_SET_NO = 999
REV_AT_EPOCH   = 399
BSTAR          = -.25993E-1
MEAN_MOTION_DOT = -.199529E-1
MEAN_MOTION_DDOT = 0

CCSDS_OMM_VERS = 2.0
CREATION_DATE  = 
ORIGINATOR     = 

OBJECT_NAME    = STARLINK-36515
OBJECT_ID      = 2026-005AC
CENTER_NAME    = EARTH
REF_FRAME      = TEME
TIME_SYSTEM    = UTC
MEAN_ELEMENT_THEORY = SGP/SGP4

EPOCH          = 2026-01-30T04:00:01.999584
MEAN_MOTION    = 15.61312913
ECCENTRICITY   = .0000897
INCLINATION    = 43.0002
RA_OF_ASC_NODE = 99.5841
ARG_OF_PERICENTER = 265.3472
MEAN_ANOMALY   = 261.2059

EPHEMERIS_TYPE = 0
CLASSIFICATION_TYPE = U
NORAD_CAT_ID   = 67430
ELEMENT_SET_NO = 999
REV_AT_EPOCH   = 391
BSTAR          = -.25987E-1
MEAN_MOTION_DOT = -.199464E-1
MEAN_MOTION_DDOT = 0

CCSDS_OMM_VERS = 2.0
CREATION_DATE  = 
ORIGINATOR     = 

OBJECT_NAME    = STARLINK-36443
OBJECT_ID      = 2026-005AD
CENTER_NAME    = EARTH
REF_FRAME      = TEME
TIME_SYSTEM    = UTC
MEAN_ELEMENT_THEORY = SGP/SGP4

EPOCH          = 2026-01-30T04:00:01.999584
MEAN_MOTION    = 15.61313951
ECCENTRICITY   = .0000994
INCLINATION    = 43.0003
RA_OF_ASC_NODE = 99.5686
ARG_OF_PERICENTER = 270.5002
MEAN_ANOMALY   = 261.8011

EPHEMERIS_TYPE = 0
CLASSIFICATION_TYPE = U
NORAD_CAT_ID   = 67431
ELEMENT_SET_NO = 999
REV_AT_EPOCH   = 394
BSTAR          = -.25976E-1
MEAN_MOTION_DOT = -.1994023E-1
MEAN_MOTION_DDOT = 0

CCSDS_OMM_VERS = 2.0
CREATION_DATE  = 
ORIGINATOR     = 

OBJECT_NAME    = STARLINK-36460
OBJECT_ID      = 2026-005AE
CENTER_NAME    = EARTH
REF_FRAME      = TEME
TIME_SYSTEM    = UTC
MEAN_ELEMENT_THEORY = SGP/SGP4

EPOCH          = 2026-01-30T04:00:01.999584
MEAN_MOTION    = 15.61316248
ECCENTRICITY   = .0000921
INCLINATION    = 43.0003
RA_OF_ASC_NODE = 99.5643
ARG_OF_PERICENTER = 271.8598
MEAN_ANOMALY   = 262.3575

EPHEMERIS_TYPE = 0
CLASSIFICATION_TYPE = U
NORAD_CAT_ID   = 67432
ELEMENT_SET_NO = 999
REV_AT_EPOCH   = 399
BSTAR          = -.26023E-1
MEAN_MOTION_DOT = -.1997288E-1
MEAN_MOTION_DDOT = 0

CCSDS_OMM_VERS = 2.0
CREATION_DATE  = 
ORIGINATOR     = 

OBJECT_NAME    = YAOGAN-50 01
OBJECT_ID      = 2026-006A
CENTER_NAME    = EARTH
REF_FRAME      = TEME
TIME_SYSTEM    = UTC
MEAN_ELEMENT_THEORY = SGP/SGP4

EPOCH          = 2026-01-30T03:26:52.492704
MEAN_MOTION    = 13.83252288
ECCENTRICITY   = .0000667
INCLINATION    = 142.0313
RA_OF_ASC_NODE = 268.6759
ARG_OF_PERICENTER = 269.2959
MEAN_ANOMALY   = 90.7684

EPHEMERIS_TYPE = 0
CLASSIFICATION_TYPE = U
NORAD_CAT_ID   = 67433
ELEMENT_SET_NO = 999
REV_AT_EPOCH   = 231
BSTAR          = .17002E-3
MEAN_MOTION_DOT = .376E-5
MEAN_MOTION_DDOT = 0

CCSDS_OMM_VERS = 2.0
CREATION_DATE  = 
ORIGINATOR     = 

OBJECT_NAME    = CZ-6A R/B
OBJECT_ID      = 2026-006B
CENTER_NAME    = EARTH
REF_FRAME      = TEME
TIME_SYSTEM    = UTC
MEAN_ELEMENT_THEORY = SGP/SGP4

EPOCH          = 2026-01-29T10:10:22.024128
MEAN_MOTION    = 14.62283004
ECCENTRICITY   = .0202891
INCLINATION    = 142.0436
RA_OF_ASC_NODE = 274.6350
ARG_OF_PERICENTER = 197.9215
MEAN_ANOMALY   = 161.4267

EPHEMERIS_TYPE = 0
CLASSIFICATION_TYPE = U
NORAD_CAT_ID   = 67434
ELEMENT_SET_NO = 999
REV_AT_EPOCH   = 232
BSTAR          = .20456E-3
MEAN_MOTION_DOT = .1735E-4
MEAN_MOTION_DDOT = 0

CCSDS_OMM_VERS = 2.0
CREATION_DATE  = 
ORIGINATOR     = 

OBJECT_NAME    = HULIANWANG DIGUI-137
OBJECT_ID      = 2026-007A
CENTER_NAME    = EARTH
REF_FRAME      = TEME
TIME_SYSTEM    = UTC
MEAN_ELEMENT_THEORY = SGP/SGP4

EPOCH          = 2026-01-29T13:45:02.214720
MEAN_MOTION    = 13.85869606
ECCENTRICITY   = .0002874
INCLINATION    = 50.0388
RA_OF_ASC_NODE = 231.0696
ARG_OF_PERICENTER = 290.3634
MEAN_ANOMALY   = 69.6954

EPHEMERIS_TYPE = 0
CLASSIFICATION_TYPE = U
NORAD_CAT_ID   = 67435
ELEMENT_SET_NO = 999
REV_AT_EPOCH   = 222
BSTAR          = .19317E-3
MEAN_MOTION_DOT = .78E-6
MEAN_MOTION_DDOT = 0

